[{"OBJECT_NAME":"STARLINK-36428","OBJECT_ID":"2026-003AE","EPOCH":"2026-01-16T22:00:01.999584","MEAN_MOTION":15.96603047,"ECCENTRICITY":0.00016063,"INCLINATION":42.9982,"RA_OF_ASC_NODE":167.5663,"ARG_OF_PERICENTER":273.6728,"MEAN_ANOMALY":77.1015,"EPHEMERIS_TYPE":0,"CLASSIFICATION_TYPE":"U","NORAD_CAT_ID":67362,"ELEMENT_SET_NO":999,"REV_AT_EPOCH":235,"BSTAR":-0.0038139484,"MEAN_MOTION_DOT":-0.01670476,"MEAN_MOTION_DDOT":0.00081012699}]
