STARLINK-36428          
1 67362U 26003AE  26016.91668981 -.01670476  81013-3 -38139-2 0  9993
2 67362  42.9982 167.5663 0001606 273.6728  77.1015 15.96603047  2354
